{"type":"FeatureCollection","attribution":"合成データ（仮） — synthetic placeholder, not real OpenStreetMap geometry","placeholder":true,"center":[139.7528,35.6852],"features":[{"type":"Feature","properties":{"kind":"river"},"geometry":{"type":"LineString","coordinates":[[139.71287,35.674389],[139.713345,35.67461],[139.713956,35.674898],[139.714679,35.675239],[139.71549,35.675621],[139.716364,35.676031],[139.717278,35.676457],[139.718209,35.676887],[139.719131,35.677308],[139.720022,35.677706],[139.720856,35.678071],[139.721655,35.678414],[139.722453,35.678754],[139.723252,35.67909],[139.72405,35.679422],[139.724849,35.679748],[139.725648,35.680068],[139.726446,35.68038],[139.727245,35.680682],[139.728043,35.680975],[139.728842,35.681256],[139.729641,35.681528],[139.730439,35.681792],[139.731238,35.682048],[139.732036,35.682295],[139.732835,35.682533],[139.733634,35.682763],[139.734432,35.682982],[139.735231,35.683192],[139.736029,35.68339],[139.736828,35.683578],[139.737627,35.683755],[139.738425,35.683921],[139.739224,35.684076],[139.740022,35.684221],[139.740821,35.684356],[139.74162,35.684482],[139.742418,35.684599],[139.743217,35.684708],[139.744015,35.684808],[139.744814,35.6849],[139.745613,35.684983],[139.746411,35.685054],[139.74721,35.685115],[139.748008,35.685167],[139.748807,35.685211],[139.749606,35.685248],[139.750404,35.68528],[139.751203,35.685306],[139.752001,35.685329],[139.7528,35.685349],[139.753599,35.685363],[139.754397,35.685369],[139.755196,35.685367],[139.755994,35.68536],[139.756793,35.685349],[139.757592,35.685335],[139.75839,35.68532],[139.759189,35.685305],[139.759987,35.685292],[139.760786,35.685282],[139.761585,35.685272],[139.762383,35.685258],[139.763182,35.685242],[139.76398,35.685225],[139.764779,35.685209],[139.765578,35.685195],[139.766376,35.685185],[139.767175,35.685181],[139.767973,35.685183],[139.768772,35.685193],[139.769571,35.685209],[139.770369,35.685227],[139.771168,35.685248],[139.771966,35.685274],[139.772765,35.685305],[139.773564,35.685343],[139.774362,35.685388],[139.775161,35.685443],[139.775959,35.685507],[139.776758,35.685583],[139.777557,35.685668],[139.778355,35.68576],[139.779154,35.685861],[139.779952,35.68597],[139.780751,35.686087],[139.78155,35.686214],[139.782348,35.686351],[139.783147,35.686498],[139.783945,35.686655],[139.784744,35.686824],[139.785578,35.687017],[139.786469,35.687244],[139.787391,35.687493],[139.788322,35.687756],[139.789236,35.688022],[139.79011,35.688281],[139.790921,35.688525],[139.791644,35.688744],[139.792255,35.688927],[139.79273,35.689064]]}},{"type":"Feature","properties":{"kind":"greenway"},"geometry":{"type":"LineString","coordinates":[[139.713247,35.673993],[139.713722,35.674214],[139.714333,35.674501],[139.715056,35.674842],[139.715867,35.675224],[139.716741,35.675635],[139.717655,35.676061],[139.718586,35.676491],[139.719508,35.676911],[139.720399,35.67731],[139.721233,35.677675],[139.722032,35.678017],[139.72283,35.678357],[139.723629,35.678694],[139.724428,35.679026],[139.725226,35.679352],[139.726025,35.679672],[139.726823,35.679983],[139.727622,35.680286],[139.728421,35.680578],[139.729219,35.68086],[139.730018,35.681131],[139.730816,35.681395],[139.731615,35.681651],[139.732414,35.681899],[139.733212,35.682137],[139.734011,35.682366],[139.734809,35.682586],[139.735608,35.682795],[139.736407,35.682994],[139.737205,35.683182],[139.738004,35.683358],[139.738802,35.683524],[139.739601,35.683679],[139.7404,35.683824],[139.741198,35.68396],[139.741997,35.684086],[139.742795,35.684203],[139.743594,35.684311],[139.744393,35.684411],[139.745191,35.684504],[139.74599,35.684586],[139.746788,35.684658],[139.747587,35.684719],[139.748386,35.684771],[139.749184,35.684815],[139.749983,35.684852],[139.750781,35.684883],[139.75158,35.68491],[139.752379,35.684932],[139.753177,35.684952],[139.753976,35.684967],[139.754774,35.684972],[139.755573,35.684971],[139.756372,35.684964],[139.75717,35.684952],[139.757969,35.684938],[139.758767,35.684923],[139.759566,35.684908],[139.760364,35.684895],[139.761163,35.684885],[139.761962,35.684875],[139.76276,35.684861],[139.763559,35.684845],[139.764357,35.684828],[139.765156,35.684812],[139.765955,35.684799],[139.766753,35.684789],[139.767552,35.684784],[139.76835,35.684786],[139.769149,35.684797],[139.769948,35.684812],[139.770746,35.68483],[139.771545,35.684852],[139.772343,35.684877],[139.773142,35.684908],[139.773941,35.684946],[139.774739,35.684992],[139.775538,35.685046],[139.776336,35.685111],[139.777135,35.685186],[139.777934,35.685271],[139.778732,35.685364],[139.779531,35.685464],[139.780329,35.685573],[139.781128,35.685691],[139.781927,35.685818],[139.782725,35.685955],[139.783524,35.686101],[139.784322,35.686259],[139.785121,35.686427],[139.785956,35.686621],[139.786846,35.686847],[139.787768,35.687097],[139.788699,35.687359],[139.789613,35.687625],[139.790488,35.687885],[139.791298,35.688129],[139.792021,35.688347],[139.792632,35.68853],[139.793107,35.688668]]}},{"type":"Feature","properties":{"kind":"road"},"geometry":{"type":"LineString","coordinates":[[139.713036,35.652768],[139.713065,35.655362],[139.713087,35.657957],[139.713101,35.660551],[139.713107,35.663146],[139.713105,35.665741],[139.713095,35.668335],[139.713077,35.67093],[139.713051,35.673524],[139.713019,35.676119],[139.712981,35.678714],[139.712938,35.681308],[139.712892,35.683903],[139.712843,35.686497],[139.712793,35.689092],[139.712743,35.691686],[139.712695,35.694281],[139.71265,35.696876],[139.712609,35.69947],[139.712573,35.702065],[139.712543,35.704659],[139.712521,35.707254],[139.712506,35.709849],[139.712499,35.712443],[139.7125,35.715038],[139.71251,35.717632]]}},{"type":"Feature","properties":{"kind":"road"},"geometry":{"type":"LineString","coordinates":[[139.716777,35.652768],[139.716826,35.655362],[139.716847,35.657957],[139.716839,35.660551],[139.716802,35.663146],[139.716739,35.665741],[139.716653,35.668335],[139.716547,35.67093],[139.716426,35.673524],[139.716298,35.676119],[139.716168,35.678714],[139.716042,35.681308],[139.715928,35.683903],[139.715829,35.686497],[139.715752,35.689092],[139.7157,35.691686],[139.715676,35.694281],[139.71568,35.696876],[139.715714,35.69947],[139.715774,35.702065],[139.715858,35.704659],[139.715962,35.707254],[139.716081,35.709849],[139.716209,35.712443],[139.716339,35.715038],[139.716465,35.717632]]}},{"type":"Feature","properties":{"kind":"road"},"geometry":{"type":"LineString","coordinates":[[139.720445,35.652768],[139.720472,35.655362],[139.72049,35.657957],[139.720499,35.660551],[139.720498,35.663146],[139.720489,35.665741],[139.72047,35.668335],[139.720442,35.67093],[139.720407,35.673524],[139.720365,35.676119],[139.720319,35.678714],[139.720268,35.681308],[139.720216,35.683903],[139.720163,35.686497],[139.720112,35.689092],[139.720063,35.691686],[139.720019,35.694281],[139.719981,35.696876],[139.71995,35.69947],[139.719928,35.702065],[139.719914,35.704659],[139.719909,35.707254],[139.719914,35.709849],[139.719929,35.712443],[139.719952,35.715038],[139.719983,35.717632]]}},{"type":"Feature","properties":{"kind":"road"},"geometry":{"type":"LineString","coordinates":[[139.723192,35.652768],[139.723295,35.655362],[139.72341,35.657957],[139.723531,35.660551],[139.723651,35.663146],[139.723762,35.665741],[139.723858,35.668335],[139.723932,35.67093],[139.723981,35.673524],[139.724001,35.676119],[139.723992,35.678714],[139.723953,35.681308],[139.723887,35.683903],[139.723799,35.686497],[139.723692,35.689092],[139.723575,35.691686],[139.723453,35.694281],[139.723335,35.696876],[139.723228,35.69947],[139.723137,35.702065],[139.723068,35.704659],[139.723027,35.707254],[139.723014,35.709849],[139.723031,35.712443],[139.723077,35.715038],[139.72315,35.717632]]}},{"type":"Feature","properties":{"kind":"road"},"geometry":{"type":"LineString","coordinates":[[139.726671,35.652768],[139.726596,35.655362],[139.726532,35.657957],[139.726481,35.660551],[139.726445,35.663146],[139.726426,35.665741],[139.726424,35.668335],[139.726439,35.67093],[139.726471,35.673524],[139.726519,35.676119],[139.72658,35.678714],[139.726652,35.681308],[139.726733,35.683903],[139.726819,35.686497],[139.726907,35.689092],[139.726993,35.691686],[139.727074,35.694281],[139.727147,35.696876],[139.727209,35.69947],[139.727257,35.702065],[139.72729,35.704659],[139.727306,35.707254],[139.727304,35.709849],[139.727286,35.712443],[139.727251,35.715038],[139.7272,35.717632]]}},{"type":"Feature","properties":{"kind":"road"},"geometry":{"type":"LineString","coordinates":[[139.730704,35.652768],[139.730597,35.655362],[139.730493,35.657957],[139.730397,35.660551],[139.730309,35.663146],[139.730233,35.665741],[139.73017,35.668335],[139.730123,35.67093],[139.730093,35.673524],[139.73008,35.676119],[139.730084,35.678714],[139.730107,35.681308],[139.730146,35.683903],[139.730201,35.686497],[139.730271,35.689092],[139.730353,35.691686],[139.730446,35.694281],[139.730547,35.696876],[139.730653,35.69947],[139.730761,35.702065],[139.730869,35.704659],[139.730973,35.707254],[139.731071,35.709849],[139.73116,35.712443],[139.731238,35.715038],[139.731302,35.717632]]}},{"type":"Feature","properties":{"kind":"road"},"geometry":{"type":"LineString","coordinates":[[139.734059,35.652768],[139.734026,35.655362],[139.734044,35.657957],[139.734113,35.660551],[139.734226,35.663146],[139.734373,35.665741],[139.734542,35.668335],[139.734716,35.67093],[139.734881,35.673524],[139.735022,35.676119],[139.735126,35.678714],[139.735185,35.681308],[139.735192,35.683903],[139.735147,35.686497],[139.735055,35.689092],[139.734923,35.691686],[139.734764,35.694281],[139.73459,35.696876],[139.734419,35.69947],[139.734264,35.702065],[139.73414,35.704659],[139.734058,35.707254],[139.734026,35.709849],[139.734045,35.712443],[139.734114,35.715038],[139.734227,35.717632]]}},{"type":"Feature","properties":{"kind":"road"},"geometry":{"type":"LineString","coordinates":[[139.738492,35.652768],[139.738446,35.655362],[139.738375,35.657957],[139.738282,35.660551],[139.738174,35.663146],[139.738056,35.665741],[139.737936,35.668335],[139.73782,35.67093],[139.737717,35.673524],[139.737631,35.676119],[139.737568,35.678714],[139.737533,35.681308],[139.737526,35.683903],[139.737548,35.686497],[139.737599,35.689092],[139.737675,35.691686],[139.737771,35.694281],[139.737881,35.696876],[139.738,35.69947],[139.73812,35.702065],[139.738234,35.704659],[139.738335,35.707254],[139.738416,35.709849],[139.738474,35.712443],[139.738505,35.715038],[139.738506,35.717632]]}},{"type":"Feature","properties":{"kind":"road"},"geometry":{"type":"LineString","coordinates":[[139.741547,35.652768],[139.7415,35.655362],[139.741464,35.657957],[139.741438,35.660551],[139.741425,35.663146],[139.741424,35.665741],[139.741435,35.668335],[139.741459,35.67093],[139.741494,35.673524],[139.741539,35.676119],[139.741592,35.678714],[139.741653,35.681308],[139.741719,35.683903],[139.741787,35.686497],[139.741855,35.689092],[139.741922,35.691686],[139.741985,35.694281],[139.742041,35.696876],[139.74209,35.69947],[139.742128,35.702065],[139.742156,35.704659],[139.742172,35.707254],[139.742176,35.709849],[139.742167,35.712443],[139.742145,35.715038],[139.742113,35.717632]]}},{"type":"Feature","properties":{"kind":"road"},"geometry":{"type":"LineString","coordinates":[[139.74513,35.652768],[139.74524,35.655362],[139.745362,35.657957],[139.745492,35.660551],[139.745624,35.663146],[139.745752,35.665741],[139.745873,35.668335],[139.74598,35.67093],[139.74607,35.673524],[139.74614,35.676119],[139.746185,35.678714],[139.746206,35.681308],[139.7462,35.683903],[139.746167,35.686497],[139.746111,35.689092],[139.746031,35.691686],[139.745933,35.694281],[139.745818,35.696876],[139.745694,35.69947],[139.745563,35.702065],[139.745431,35.704659],[139.745304,35.707254],[139.745187,35.709849],[139.745084,35.712443],[139.745,35.715038],[139.744937,35.717632]]}},{"type":"Feature","properties":{"kind":"road"},"geometry":{"type":"LineString","coordinates":[[139.749297,35.652768],[139.749393,35.655362],[139.749477,35.657957],[139.749544,35.660551],[139.749589,35.663146],[139.749609,35.665741],[139.749601,35.668335],[139.749568,35.67093],[139.74951,35.673524],[139.749433,35.676119],[139.749341,35.678714],[139.749242,35.681308],[139.749141,35.683903],[139.749046,35.686497],[139.748964,35.689092],[139.7489,35.691686],[139.748859,35.694281],[139.748844,35.696876],[139.748855,35.69947],[139.748892,35.702065],[139.748953,35.704659],[139.749033,35.707254],[139.749126,35.709849],[139.749226,35.712443],[139.749327,35.715038],[139.74942,35.717632]]}},{"type":"Feature","properties":{"kind":"road"},"geometry":{"type":"LineString","coordinates":[[139.753509,35.652768],[139.753504,35.655362],[139.753484,35.657957],[139.753449,35.660551],[139.7534,35.663146],[139.753338,35.665741],[139.753267,35.668335],[139.753187,35.67093],[139.753103,35.673524],[139.753016,35.676119],[139.75293,35.678714],[139.752848,35.681308],[139.752772,35.683903],[139.752706,35.686497],[139.75265,35.689092],[139.752608,35.691686],[139.75258,35.694281],[139.752568,35.696876],[139.752572,35.69947],[139.752592,35.702065],[139.752627,35.704659],[139.752676,35.707254],[139.752737,35.709849],[139.752808,35.712443],[139.752887,35.715038],[139.752972,35.717632]]}},{"type":"Feature","properties":{"kind":"road"},"geometry":{"type":"LineString","coordinates":[[139.757012,35.652768],[139.757013,35.655362],[139.756987,35.657957],[139.756935,35.660551],[139.756862,35.663146],[139.756772,35.665741],[139.756671,35.668335],[139.756567,35.67093],[139.756466,35.673524],[139.756376,35.676119],[139.756302,35.678714],[139.756251,35.681308],[139.756225,35.683903],[139.756226,35.686497],[139.756254,35.689092],[139.756307,35.691686],[139.756382,35.694281],[139.756473,35.696876],[139.756575,35.69947],[139.756679,35.702065],[139.756779,35.704659],[139.756868,35.707254],[139.75694,35.709849],[139.75699,35.712443],[139.757014,35.715038],[139.75701,35.717632]]}},{"type":"Feature","properties":{"kind":"road"},"geometry":{"type":"LineString","coordinates":[[139.759533,35.652768],[139.759586,35.655362],[139.759684,35.657957],[139.759818,35.660551],[139.759977,35.663146],[139.76015,35.665741],[139.760321,35.668335],[139.760478,35.67093],[139.760608,35.673524],[139.760701,35.676119],[139.760748,35.678714],[139.760747,35.681308],[139.760697,35.683903],[139.760602,35.686497],[139.76047,35.689092],[139.760312,35.691686],[139.76014,35.694281],[139.759968,35.696876],[139.759809,35.69947],[139.759677,35.702065],[139.759582,35.704659],[139.759532,35.707254],[139.75953,35.709849],[139.759577,35.712443],[139.759669,35.715038],[139.759799,35.717632]]}},{"type":"Feature","properties":{"kind":"road"},"geometry":{"type":"LineString","coordinates":[[139.764088,35.652768],[139.764119,35.655362],[139.764133,35.657957],[139.764128,35.660551],[139.764107,35.663146],[139.764068,35.665741],[139.764013,35.668335],[139.763945,35.67093],[139.763865,35.673524],[139.763776,35.676119],[139.763681,35.678714],[139.763583,35.681308],[139.763486,35.683903],[139.763392,35.686497],[139.763305,35.689092],[139.763227,35.691686],[139.763162,35.694281],[139.763111,35.696876],[139.763076,35.69947],[139.763059,35.702065],[139.763059,35.704659],[139.763077,35.707254],[139.763112,35.709849],[139.763163,35.712443],[139.763229,35.715038],[139.763306,35.717632]]}},{"type":"Feature","properties":{"kind":"road"},"geometry":{"type":"LineString","coordinates":[[139.768371,35.652768],[139.768328,35.655362],[139.768261,35.657957],[139.768174,35.660551],[139.76807,35.663146],[139.767955,35.665741],[139.767833,35.668335],[139.76771,35.67093],[139.767592,35.673524],[139.767485,35.676119],[139.767392,35.678714],[139.767318,35.681308],[139.767268,35.683903],[139.767242,35.686497],[139.767242,35.689092],[139.767268,35.691686],[139.767319,35.694281],[139.767392,35.696876],[139.767485,35.69947],[139.767593,35.702065],[139.767711,35.704659],[139.767834,35.707254],[139.767955,35.709849],[139.768071,35.712443],[139.768174,35.715038],[139.768261,35.717632]]}},{"type":"Feature","properties":{"kind":"road"},"geometry":{"type":"LineString","coordinates":[[139.771277,35.652768],[139.771144,35.655362],[139.770999,35.657957],[139.77085,35.660551],[139.770704,35.663146],[139.77057,35.665741],[139.770455,35.668335],[139.770365,35.67093],[139.770305,35.673524],[139.770278,35.676119],[139.770285,35.678714],[139.770326,35.681308],[139.770399,35.683903],[139.770501,35.686497],[139.770625,35.689092],[139.770764,35.691686],[139.770912,35.694281],[139.771061,35.696876],[139.771202,35.69947],[139.771328,35.702065],[139.771432,35.704659],[139.771508,35.707254],[139.771553,35.709849],[139.771564,35.712443],[139.77154,35.715038],[139.771483,35.717632]]}},{"type":"Feature","properties":{"kind":"road"},"geometry":{"type":"LineString","coordinates":[[139.774554,35.652768],[139.774498,35.655362],[139.774449,35.657957],[139.774408,35.660551],[139.774377,35.663146],[139.774355,35.665741],[139.774345,35.668335],[139.774346,35.67093],[139.774358,35.673524],[139.774381,35.676119],[139.774414,35.678714],[139.774456,35.681308],[139.774506,35.683903],[139.774563,35.686497],[139.774624,35.689092],[139.774689,35.691686],[139.774755,35.694281],[139.77482,35.696876],[139.774883,35.69947],[139.774941,35.702065],[139.774993,35.704659],[139.775038,35.707254],[139.775074,35.709849],[139.7751,35.712443],[139.775116,35.715038],[139.77512,35.717632]]}},{"type":"Feature","properties":{"kind":"road"},"geometry":{"type":"LineString","coordinates":[[139.778671,35.652768],[139.778511,35.655362],[139.778377,35.657957],[139.778282,35.660551],[139.778235,35.663146],[139.778242,35.665741],[139.7783,35.668335],[139.778405,35.67093],[139.778547,35.673524],[139.778712,35.676119],[139.778884,35.678714],[139.779048,35.681308],[139.779187,35.683903],[139.779289,35.686497],[139.779344,35.689092],[139.779347,35.691686],[139.779297,35.694281],[139.779199,35.696876],[139.779063,35.69947],[139.778901,35.702065],[139.778728,35.704659],[139.778562,35.707254],[139.778418,35.709849],[139.778308,35.712443],[139.778245,35.715038],[139.778234,35.717632]]}},{"type":"Feature","properties":{"kind":"road"},"geometry":{"type":"LineString","coordinates":[[139.782141,35.652768],[139.782174,35.655362],[139.782216,35.657957],[139.782263,35.660551],[139.782316,35.663146],[139.782372,35.665741],[139.78243,35.668335],[139.782487,35.67093],[139.782543,35.673524],[139.782595,35.676119],[139.782642,35.678714],[139.782683,35.681308],[139.782715,35.683903],[139.782739,35.686497],[139.782753,35.689092],[139.782757,35.691686],[139.78275,35.694281],[139.782734,35.696876],[139.782708,35.69947],[139.782674,35.702065],[139.782632,35.704659],[139.782583,35.707254],[139.78253,35.709849],[139.782474,35.712443],[139.782416,35.715038],[139.782358,35.717632]]}},{"type":"Feature","properties":{"kind":"road"},"geometry":{"type":"LineString","coordinates":[[139.786357,35.652768],[139.786369,35.655362],[139.786359,35.657957],[139.786325,35.660551],[139.786271,35.663146],[139.786199,35.665741],[139.786111,35.668335],[139.786012,35.67093],[139.785907,35.673524],[139.785799,35.676119],[139.785695,35.678714],[139.785599,35.681308],[139.785515,35.683903],[139.785448,35.686497],[139.785399,35.689092],[139.785373,35.691686],[139.785368,35.694281],[139.785387,35.696876],[139.785428,35.69947],[139.785489,35.702065],[139.785567,35.704659],[139.785659,35.707254],[139.785761,35.709849],[139.785868,35.712443],[139.785974,35.715038],[139.786076,35.717632]]}},{"type":"Feature","properties":{"kind":"road"},"geometry":{"type":"LineString","coordinates":[[139.788646,35.652768],[139.788706,35.655362],[139.788771,35.657957],[139.788841,35.660551],[139.788912,35.663146],[139.788984,35.665741],[139.789053,35.668335],[139.789118,35.67093],[139.789177,35.673524],[139.789228,35.676119],[139.78927,35.678714],[139.789301,35.681308],[139.789321,35.683903],[139.789329,35.686497],[139.789325,35.689092],[139.789309,35.691686],[139.789281,35.694281],[139.789242,35.696876],[139.789194,35.69947],[139.789137,35.702065],[139.789074,35.704659],[139.789006,35.707254],[139.788935,35.709849],[139.788864,35.712443],[139.788793,35.715038],[139.788726,35.717632]]}},{"type":"Feature","properties":{"kind":"road"},"geometry":{"type":"LineString","coordinates":[[139.792714,35.652768],[139.792779,35.655362],[139.792839,35.657957],[139.792894,35.660551],[139.79294,35.663146],[139.792978,35.665741],[139.793007,35.668335],[139.793024,35.67093],[139.793031,35.673524],[139.793026,35.676119],[139.793011,35.678714],[139.792984,35.681308],[139.792948,35.683903],[139.792903,35.686497],[139.79285,35.689092],[139.79279,35.691686],[139.792726,35.694281],[139.792659,35.696876],[139.792591,35.69947],[139.792523,35.702065],[139.792457,35.704659],[139.792396,35.707254],[139.79234,35.709849],[139.792292,35.712443],[139.792252,35.715038],[139.792221,35.717632]]}},{"type":"Feature","properties":{"kind":"road"},"geometry":{"type":"LineString","coordinates":[[139.71287,35.652414],[139.716064,35.652494],[139.719259,35.652561],[139.722453,35.652611],[139.725648,35.652641],[139.728842,35.652649],[139.732036,35.652634],[139.735231,35.652598],[139.738425,35.652542],[139.74162,35.652471],[139.744814,35.652388],[139.748008,35.652301],[139.751203,35.652213],[139.754397,35.652132],[139.757592,35.652063],[139.760786,35.652009],[139.76398,35.651976],[139.767175,35.651964],[139.770369,35.651975],[139.773564,35.652008],[139.776758,35.652061],[139.779952,35.65213],[139.783147,35.652211],[139.786341,35.652298],[139.789536,35.652386],[139.79273,35.652468]]}},{"type":"Feature","properties":{"kind":"road"},"geometry":{"type":"LineString","coordinates":[[139.71287,35.655218],[139.716064,35.655274],[139.719259,35.655336],[139.722453,35.655401],[139.725648,35.655467],[139.728842,35.655531],[139.732036,35.65559],[139.735231,35.655642],[139.738425,35.655684],[139.74162,35.655715],[139.744814,35.655734],[139.748008,35.655739],[139.751203,35.655731],[139.754397,35.65571],[139.757592,35.655677],[139.760786,35.655632],[139.76398,35.655579],[139.767175,35.655519],[139.770369,35.655455],[139.773564,35.655389],[139.776758,35.655324],[139.779952,35.655263],[139.783147,35.655208],[139.786341,35.655162],[139.789536,35.655127],[139.79273,35.655103]]}},{"type":"Feature","properties":{"kind":"road"},"geometry":{"type":"LineString","coordinates":[[139.71287,35.658701],[139.716064,35.65876],[139.719259,35.658822],[139.722453,35.658882],[139.725648,35.658936],[139.728842,35.65898],[139.732036,35.659009],[139.735231,35.659021],[139.738425,35.659017],[139.74162,35.658995],[139.744814,35.658957],[139.748008,35.658908],[139.751203,35.658849],[139.754397,35.658787],[139.757592,35.658727],[139.760786,35.658672],[139.76398,35.658628],[139.767175,35.658597],[139.770369,35.658583],[139.773564,35.658587],[139.776758,35.658608],[139.779952,35.658644],[139.783147,35.658693],[139.786341,35.65875],[139.789536,35.658812],[139.79273,35.658873]]}},{"type":"Feature","properties":{"kind":"road"},"geometry":{"type":"LineString","coordinates":[[139.71287,35.66137],[139.716064,35.661317],[139.719259,35.66129],[139.722453,35.661293],[139.725648,35.661326],[139.728842,35.661384],[139.732036,35.661461],[139.735231,35.66155],[139.738425,35.661641],[139.74162,35.661724],[139.744814,35.66179],[139.748008,35.661833],[139.751203,35.661847],[139.754397,35.661831],[139.757592,35.661787],[139.760786,35.66172],[139.76398,35.661636],[139.767175,35.661545],[139.770369,35.661457],[139.773564,35.66138],[139.776758,35.661323],[139.779952,35.661292],[139.783147,35.661291],[139.786341,35.661319],[139.789536,35.661374],[139.79273,35.661449]]}},{"type":"Feature","properties":{"kind":"road"},"geometry":{"type":"LineString","coordinates":[[139.71287,35.664475],[139.716064,35.664427],[139.719259,35.664397],[139.722453,35.664386],[139.725648,35.664396],[139.728842,35.664425],[139.732036,35.664472],[139.735231,35.664534],[139.738425,35.664605],[139.74162,35.664682],[139.744814,35.664758],[139.748008,35.664829],[139.751203,35.66489],[139.754397,35.664937],[139.757592,35.664965],[139.760786,35.664974],[139.76398,35.664963],[139.767175,35.664932],[139.770369,35.664884],[139.773564,35.664822],[139.776758,35.664749],[139.779952,35.664673],[139.783147,35.664596],[139.786341,35.664526],[139.789536,35.664466],[139.79273,35.664421]]}},{"type":"Feature","properties":{"kind":"road"},"geometry":{"type":"LineString","coordinates":[[139.71287,35.667231],[139.716064,35.667211],[139.719259,35.667196],[139.722453,35.667189],[139.725648,35.667188],[139.728842,35.667194],[139.732036,35.667206],[139.735231,35.667224],[139.738425,35.667249],[139.74162,35.667278],[139.744814,35.667311],[139.748008,35.667347],[139.751203,35.667386],[139.754397,35.667425],[139.757592,35.667464],[139.760786,35.667502],[139.76398,35.667538],[139.767175,35.66757],[139.770369,35.667597],[139.773564,35.667619],[139.776758,35.667636],[139.779952,35.667646],[139.783147,35.667649],[139.786341,35.667646],[139.789536,35.667636],[139.79273,35.66762]]}},{"type":"Feature","properties":{"kind":"road"},"geometry":{"type":"LineString","coordinates":[[139.71287,35.670144],[139.716064,35.670071],[139.719259,35.670024],[139.722453,35.670007],[139.725648,35.67002],[139.728842,35.670063],[139.732036,35.670132],[139.735231,35.670221],[139.738425,35.670322],[139.74162,35.670426],[139.744814,35.670525],[139.748008,35.670609],[139.751203,35.670671],[139.754397,35.670706],[139.757592,35.67071],[139.760786,35.670684],[139.76398,35.67063],[139.767175,35.670551],[139.770369,35.670456],[139.773564,35.670353],[139.776758,35.67025],[139.779952,35.670156],[139.783147,35.670081],[139.786341,35.67003],[139.789536,35.670007],[139.79273,35.670016]]}},{"type":"Feature","properties":{"kind":"road"},"geometry":{"type":"LineString","coordinates":[[139.71287,35.673288],[139.716064,35.673335],[139.719259,35.673375],[139.722453,35.673405],[139.725648,35.673425],[139.728842,35.673434],[139.732036,35.673432],[139.735231,35.673419],[139.738425,35.673395],[139.74162,35.673361],[139.744814,35.673319],[139.748008,35.673268],[139.751203,35.673212],[139.754397,35.673152],[139.757592,35.67309],[139.760786,35.673027],[139.76398,35.672965],[139.767175,35.672907],[139.770369,35.672855],[139.773564,35.672809],[139.776758,35.672772],[139.779952,35.672744],[139.783147,35.672727],[139.786341,35.672721],[139.789536,35.672726],[139.79273,35.672742]]}},{"type":"Feature","properties":{"kind":"road"},"geometry":{"type":"LineString","coordinates":[[139.71287,35.676155],[139.716064,35.676136],[139.719259,35.676095],[139.722453,35.676036],[139.725648,35.675963],[139.728842,35.675884],[139.732036,35.675805],[139.735231,35.675734],[139.738425,35.675678],[139.74162,35.67564],[139.744814,35.675626],[139.748008,35.675635],[139.751203,35.675668],[139.754397,35.675721],[139.757592,35.675789],[139.760786,35.675867],[139.76398,35.675947],[139.767175,35.676021],[139.770369,35.676084],[139.773564,35.67613],[139.776758,35.676153],[139.779952,35.676153],[139.783147,35.676129],[139.786341,35.676083],[139.789536,35.67602],[139.79273,35.675945]]}},{"type":"Feature","properties":{"kind":"road"},"geometry":{"type":"LineString","coordinates":[[139.71287,35.679463],[139.716064,35.679431],[139.719259,35.679393],[139.722453,35.67935],[139.725648,35.679304],[139.728842,35.679257],[139.732036,35.67921],[139.735231,35.679166],[139.738425,35.679125],[139.74162,35.67909],[139.744814,35.679062],[139.748008,35.679042],[139.751203,35.679031],[139.754397,35.679029],[139.757592,35.679036],[139.760786,35.679052],[139.76398,35.679077],[139.767175,35.679109],[139.770369,35.679147],[139.773564,35.67919],[139.776758,35.679236],[139.779952,35.679284],[139.783147,35.67933],[139.786341,35.679375],[139.789536,35.679415],[139.79273,35.679449]]}},{"type":"Feature","properties":{"kind":"road"},"geometry":{"type":"LineString","coordinates":[[139.71287,35.682187],[139.716064,35.682229],[139.719259,35.682284],[139.722453,35.682346],[139.725648,35.682415],[139.728842,35.682486],[139.732036,35.682555],[139.735231,35.68262],[139.738425,35.682677],[139.74162,35.682723],[139.744814,35.682756],[139.748008,35.682774],[139.751203,35.682777],[139.754397,35.682764],[139.757592,35.682736],[139.760786,35.682695],[139.76398,35.682641],[139.767175,35.682579],[139.770369,35.682511],[139.773564,35.68244],[139.776758,35.68237],[139.779952,35.682305],[139.783147,35.682248],[139.786341,35.682201],[139.789536,35.682167],[139.79273,35.682147]]}},{"type":"Feature","properties":{"kind":"road"},"geometry":{"type":"LineString","coordinates":[[139.71287,35.685157],[139.716064,35.685246],[139.719259,35.68532],[139.722453,35.685373],[139.725648,35.685401],[139.728842,35.685402],[139.732036,35.685376],[139.735231,35.685325],[139.738425,35.685253],[139.74162,35.685164],[139.744814,35.685066],[139.748008,35.684966],[139.751203,35.684871],[139.754397,35.684788],[139.757592,35.684723],[139.760786,35.684681],[139.76398,35.684665],[139.767175,35.684677],[139.770369,35.684714],[139.773564,35.684775],[139.776758,35.684856],[139.779952,35.684949],[139.783147,35.685049],[139.786341,35.685148],[139.789536,35.685238],[139.79273,35.685314]]}},{"type":"Feature","properties":{"kind":"road"},"geometry":{"type":"LineString","coordinates":[[139.71287,35.688255],[139.716064,35.688153],[139.719259,35.688033],[139.722453,35.687903],[139.725648,35.687771],[139.728842,35.687649],[139.732036,35.687544],[139.735231,35.687464],[139.738425,35.687415],[139.74162,35.6874],[139.744814,35.687421],[139.748008,35.687476],[139.751203,35.68756],[139.754397,35.687669],[139.757592,35.687793],[139.760786,35.687925],[139.76398,35.688055],[139.767175,35.688172],[139.770369,35.68827],[139.773564,35.68834],[139.776758,35.688378],[139.779952,35.688381],[139.783147,35.688348],[139.786341,35.688283],[139.789536,35.68819],[139.79273,35.688075]]}},{"type":"Feature","properties":{"kind":"road"},"geometry":{"type":"LineString","coordinates":[[139.71287,35.691231],[139.716064,35.691278],[139.719259,35.691331],[139.722453,35.691387],[139.725648,35.691444],[139.728842,35.6915],[139.732036,35.691554],[139.735231,35.691603],[139.738425,35.691645],[139.74162,35.691679],[139.744814,35.691704],[139.748008,35.691719],[139.751203,35.691723],[139.754397,35.691716],[139.757592,35.691699],[139.760786,35.691671],[139.76398,35.691635],[139.767175,35.69159],[139.770369,35.69154],[139.773564,35.691486],[139.776758,35.691429],[139.779952,35.691372],[139.783147,35.691316],[139.786341,35.691265],[139.789536,35.691219],[139.79273,35.691181]]}},{"type":"Feature","properties":{"kind":"road"},"geometry":{"type":"LineString","coordinates":[[139.71287,35.693305],[139.716064,35.693339],[139.719259,35.693385],[139.722453,35.693442],[139.725648,35.693509],[139.728842,35.693583],[139.732036,35.693663],[139.735231,35.693745],[139.738425,35.693828],[139.74162,35.69391],[139.744814,35.693988],[139.748008,35.69406],[139.751203,35.694123],[139.754397,35.694177],[139.757592,35.694219],[139.760786,35.694248],[139.76398,35.694265],[139.767175,35.694267],[139.770369,35.694255],[139.773564,35.694229],[139.776758,35.694191],[139.779952,35.694141],[139.783147,35.69408],[139.786341,35.694011],[139.789536,35.693934],[139.79273,35.693854]]}},{"type":"Feature","properties":{"kind":"road"},"geometry":{"type":"LineString","coordinates":[[139.71287,35.697454],[139.716064,35.697384],[139.719259,35.697315],[139.722453,35.697247],[139.725648,35.697183],[139.728842,35.697125],[139.732036,35.697074],[139.735231,35.697031],[139.738425,35.696998],[139.74162,35.696976],[139.744814,35.696966],[139.748008,35.696967],[139.751203,35.696979],[139.754397,35.697003],[139.757592,35.697037],[139.760786,35.697081],[139.76398,35.697134],[139.767175,35.697193],[139.770369,35.697258],[139.773564,35.697326],[139.776758,35.697395],[139.779952,35.697465],[139.783147,35.697531],[139.786341,35.697594],[139.789536,35.69765],[139.79273,35.697699]]}},{"type":"Feature","properties":{"kind":"road"},"geometry":{"type":"LineString","coordinates":[[139.71287,35.70027],[139.716064,35.700236],[139.719259,35.7002],[139.722453,35.700163],[139.725648,35.700125],[139.728842,35.700088],[139.732036,35.700052],[139.735231,35.700019],[139.738425,35.699989],[139.74162,35.699964],[139.744814,35.699944],[139.748008,35.69993],[139.751203,35.699921],[139.754397,35.699919],[139.757592,35.699923],[139.760786,35.699933],[139.76398,35.699949],[139.767175,35.699971],[139.770369,35.699998],[139.773564,35.700028],[139.776758,35.700062],[139.779952,35.700099],[139.783147,35.700136],[139.786341,35.700174],[139.789536,35.700211],[139.79273,35.700246]]}},{"type":"Feature","properties":{"kind":"road"},"geometry":{"type":"LineString","coordinates":[[139.71287,35.703722],[139.716064,35.703659],[139.719259,35.703561],[139.722453,35.703437],[139.725648,35.703298],[139.728842,35.703156],[139.732036,35.703023],[139.735231,35.702912],[139.738425,35.702833],[139.74162,35.702791],[139.744814,35.702792],[139.748008,35.702834],[139.751203,35.702915],[139.754397,35.703027],[139.757592,35.703159],[139.760786,35.703302],[139.76398,35.703441],[139.767175,35.703564],[139.770369,35.703661],[139.773564,35.703723],[139.776758,35.703744],[139.779952,35.703723],[139.783147,35.703662],[139.786341,35.703565],[139.789536,35.703441],[139.79273,35.703302]]}},{"type":"Feature","properties":{"kind":"road"},"geometry":{"type":"LineString","coordinates":[[139.71287,35.70619],[139.716064,35.706114],[139.719259,35.706037],[139.722453,35.705968],[139.725648,35.705913],[139.728842,35.705878],[139.732036,35.705867],[139.735231,35.705882],[139.738425,35.70592],[139.74162,35.705978],[139.744814,35.70605],[139.748008,35.706127],[139.751203,35.706202],[139.754397,35.706267],[139.757592,35.706315],[139.760786,35.70634],[139.76398,35.706341],[139.767175,35.706317],[139.770369,35.706271],[139.773564,35.706207],[139.776758,35.706132],[139.779952,35.706055],[139.783147,35.705983],[139.786341,35.705924],[139.789536,35.705884],[139.79273,35.705868]]}},{"type":"Feature","properties":{"kind":"road"},"geometry":{"type":"LineString","coordinates":[[139.71287,35.709072],[139.716064,35.708988],[139.719259,35.708897],[139.722453,35.708804],[139.725648,35.708712],[139.728842,35.708625],[139.732036,35.708546],[139.735231,35.70848],[139.738425,35.708428],[139.74162,35.708393],[139.744814,35.708376],[139.748008,35.708378],[139.751203,35.708399],[139.754397,35.708438],[139.757592,35.708493],[139.760786,35.708563],[139.76398,35.708643],[139.767175,35.708731],[139.770369,35.708824],[139.773564,35.708917],[139.776758,35.709007],[139.779952,35.709089],[139.783147,35.709161],[139.786341,35.70922],[139.789536,35.709262],[139.79273,35.709287]]}},{"type":"Feature","properties":{"kind":"road"},"geometry":{"type":"LineString","coordinates":[[139.71287,35.711896],[139.716064,35.71194],[139.719259,35.711969],[139.722453,35.711981],[139.725648,35.711976],[139.728842,35.711954],[139.732036,35.711917],[139.735231,35.711867],[139.738425,35.711807],[139.74162,35.711743],[139.744814,35.711678],[139.748008,35.711617],[139.751203,35.711565],[139.754397,35.711525],[139.757592,35.7115],[139.760786,35.711492],[139.76398,35.711502],[139.767175,35.711528],[139.770369,35.711569],[139.773564,35.711622],[139.776758,35.711683],[139.779952,35.711749],[139.783147,35.711813],[139.786341,35.711872],[139.789536,35.711921],[139.79273,35.711957]]}},{"type":"Feature","properties":{"kind":"road"},"geometry":{"type":"LineString","coordinates":[[139.71287,35.715425],[139.716064,35.715438],[139.719259,35.715411],[139.722453,35.715349],[139.725648,35.715255],[139.728842,35.715139],[139.732036,35.715008],[139.735231,35.714875],[139.738425,35.71475],[139.74162,35.714644],[139.744814,35.714566],[139.748008,35.714522],[139.751203,35.714515],[139.754397,35.714547],[139.757592,35.714615],[139.760786,35.714712],[139.76398,35.714832],[139.767175,35.714964],[139.770369,35.715096],[139.773564,35.715219],[139.776758,35.715321],[139.779952,35.715394],[139.783147,35.715433],[139.786341,35.715434],[139.789536,35.715396],[139.79273,35.715323]]}},{"type":"Feature","properties":{"kind":"road"},"geometry":{"type":"LineString","coordinates":[[139.71287,35.717504],[139.716064,35.717456],[139.719259,35.717412],[139.722453,35.717374],[139.725648,35.717343],[139.728842,35.71732],[139.732036,35.717306],[139.735231,35.717301],[139.738425,35.717305],[139.74162,35.717318],[139.744814,35.71734],[139.748008,35.71737],[139.751203,35.717408],[139.754397,35.717451],[139.757592,35.717499],[139.760786,35.717551],[139.76398,35.717604],[139.767175,35.717658],[139.770369,35.71771],[139.773564,35.717759],[139.776758,35.717804],[139.779952,35.717844],[139.783147,35.717876],[139.786341,35.717901],[139.789536,35.717918],[139.79273,35.717925]]}},{"type":"Feature","properties":{"kind":"road"},"geometry":{"type":"LineString","coordinates":[[139.71287,35.703398],[139.716457,35.701557],[139.720036,35.699698],[139.723599,35.697825],[139.727142,35.695938],[139.730659,35.69404],[139.734147,35.692134],[139.737605,35.690224],[139.741033,35.688312],[139.744436,35.686404],[139.747817,35.684502],[139.751183,35.68261],[139.754541,35.68073],[139.757899,35.678864],[139.761264,35.677015],[139.764643,35.675183],[139.768044,35.673368],[139.77147,35.671568],[139.774925,35.669783],[139.778411,35.66801],[139.781925,35.666247],[139.785466,35.664489],[139.789028,35.662734],[139.792606,35.660978]]}},{"type":"Feature","properties":{"kind":"road"},"geometry":{"type":"LineString","coordinates":[[139.71886,35.653128],[139.721491,35.65594],[139.724115,35.658735],[139.726724,35.661515],[139.729312,35.664281],[139.731874,35.667036],[139.734407,35.669784],[139.73691,35.672527],[139.739384,35.675269],[139.741832,35.678014],[139.744258,35.680765],[139.746669,35.683526],[139.749072,35.6863],[139.751475,35.689088],[139.753885,35.691892],[139.75631,35.694713],[139.758756,35.697551],[139.761227,35.700405],[139.763728,35.703273],[139.766258,35.706154],[139.768818,35.709043],[139.771404,35.711939],[139.774011,35.714838],[139.776634,35.717735]]}},{"type":"Feature","properties":{"kind":"park"},"geometry":{"type":"Polygon","coordinates":[[[139.757453,35.688083],[139.756832,35.689235],[139.756093,35.690266],[139.755178,35.691202],[139.753902,35.691892],[139.752411,35.692269],[139.750915,35.692556],[139.7493,35.692905],[139.747452,35.693031],[139.745761,35.692513],[139.744775,35.691401],[139.744438,35.690172],[139.744161,35.689112],[139.743699,35.688083],[139.743478,35.686936],[139.743915,35.685801],[139.744884,35.684831],[139.746089,35.683986],[139.747534,35.683287],[139.749258,35.683018],[139.750958,35.683368],[139.752329,35.684048],[139.753573,35.684606],[139.75507,35.685031],[139.756617,35.685708],[139.757515,35.686813],[139.757453,35.688083]]]}},{"type":"Feature","properties":{"kind":"water"},"geometry":{"type":"Polygon","coordinates":[[[139.753141,35.687272],[139.753115,35.687555],[139.753188,35.687902],[139.753123,35.688296],[139.752752,35.68857],[139.752202,35.688621],[139.75169,35.688546],[139.751257,35.688493],[139.750824,35.688461],[139.750406,35.688348],[139.750073,35.688136],[139.749788,35.687888],[139.74948,35.687615],[139.749259,35.687272],[139.749345,35.686906],[139.749751,35.686642],[139.750217,35.686497],[139.750547,35.686339],[139.750825,35.686086],[139.751222,35.685854],[139.751725,35.685801],[139.7522,35.685925],[139.752611,35.686116],[139.752979,35.686338],[139.753226,35.686628],[139.753249,35.686966],[139.753141,35.687272]]]}},{"type":"Feature","properties":{"kind":"greenway"},"geometry":{"type":"LineString","coordinates":[[139.757537,35.688083],[139.757385,35.688811],[139.757008,35.689492],[139.756465,35.690101],[139.755857,35.69065],[139.755264,35.691186],[139.754696,35.691757],[139.754087,35.692375],[139.753343,35.692985],[139.752407,35.693481],[139.751305,35.693753],[139.750138,35.693742],[139.749028,35.693475],[139.748052,35.693044],[139.747209,35.692563],[139.746435,35.692108],[139.745665,35.691689],[139.744884,35.691263],[139.744143,35.690774],[139.743528,35.690191],[139.743103,35.689526],[139.742872,35.688813],[139.742785,35.688083],[139.742783,35.687344],[139.742853,35.686589],[139.743046,35.685821],[139.743447,35.685079],[139.744115,35.684438],[139.745035,35.683969],[139.746112,35.683706],[139.747215,35.683612],[139.748251,35.683594],[139.749206,35.683553],[139.750138,35.683438],[139.751128,35.683275],[139.752209,35.683157],[139.753337,35.68319],[139.75441,35.683439],[139.755325,35.683901],[139.756033,35.684515],[139.756553,35.685203],[139.756947,35.685911],[139.757258,35.686623],[139.757474,35.687346]]}},{"type":"Feature","properties":{"kind":"park"},"geometry":{"type":"Polygon","coordinates":[[[139.772948,35.673939],[139.77259,35.674482],[139.772305,35.67499],[139.772143,35.675613],[139.77176,35.676289],[139.770937,35.676701],[139.76991,35.676659],[139.769017,35.676359],[139.768265,35.676099],[139.767499,35.6759],[139.766776,35.675586],[139.766266,35.675101],[139.765932,35.674542],[139.765627,35.673939],[139.765482,35.673258],[139.765823,35.672614],[139.766663,35.672222],[139.767602,35.672081],[139.768341,35.67192],[139.769028,35.671583],[139.769899,35.671283],[139.770861,35.671318],[139.771658,35.671692],[139.772255,35.672195],[139.772748,35.672725],[139.773039,35.673319],[139.772948,35.673939]]]}},{"type":"Feature","properties":{"kind":"park"},"geometry":{"type":"Polygon","coordinates":[[[139.735385,35.671686],[139.735084,35.672169],[139.734764,35.672597],[139.734383,35.672988],[139.733842,35.673266],[139.733215,35.673408],[139.732602,35.673534],[139.731926,35.673723],[139.731125,35.673815],[139.730398,35.673592],[139.73002,35.673086],[139.72994,35.672544],[139.729845,35.672106],[139.729617,35.671686],[139.729484,35.671205],[139.729657,35.670725],[139.730066,35.670316],[139.730565,35.669951],[139.73117,35.669641],[139.731906,35.669535],[139.732622,35.669724],[139.73317,35.670048],[139.733674,35.670276],[139.734337,35.670414],[139.735047,35.670672],[139.735446,35.671142],[139.735385,35.671686]]]}},{"type":"Feature","properties":{"kind":"park"},"geometry":{"type":"Polygon","coordinates":[[[139.779117,35.698714],[139.779468,35.699295],[139.779463,35.699949],[139.778891,35.700445],[139.778023,35.700668],[139.777204,35.700761],[139.776467,35.700871],[139.775708,35.700923],[139.774964,35.700792],[139.774301,35.700527],[139.773626,35.70024],[139.772899,35.699884],[139.772397,35.69935],[139.772462,35.698714],[139.773006,35.698182],[139.77357,35.697789],[139.773909,35.697363],[139.774243,35.696842],[139.774844,35.696415],[139.775665,35.696256],[139.77651,35.696309],[139.777324,35.696446],[139.778081,35.696701],[139.778608,35.697157],[139.778792,35.697724],[139.778859,35.698237],[139.779117,35.698714]]]}},{"type":"Feature","properties":{"kind":"park"},"geometry":{"type":"Polygon","coordinates":[[[139.737937,35.700065],[139.737676,35.700516],[139.737275,35.700879],[139.736892,35.701202],[139.736455,35.701484],[139.73591,35.701643],[139.735336,35.701688],[139.734763,35.701736],[139.734106,35.70181],[139.733396,35.701742],[139.732889,35.701404],[139.732764,35.700904],[139.732845,35.700445],[139.732835,35.700065],[139.732722,35.699664],[139.732757,35.699223],[139.733073,35.698839],[139.733557,35.698551],[139.734101,35.698311],[139.734721,35.69815],[139.735378,35.698198],[139.735915,35.698477],[139.736294,35.698809],[139.736708,35.699041],[139.737282,35.699248],[139.737799,35.699592],[139.737937,35.700065]]]}},{"type":"Feature","properties":{"kind":"park"},"geometry":{"type":"Polygon","coordinates":[[[139.76297,35.70502],[139.762732,35.705393],[139.762474,35.70572],[139.762181,35.70602],[139.76177,35.70624],[139.761286,35.706349],[139.76081,35.706435],[139.760295,35.706569],[139.759682,35.706645],[139.759111,35.70649],[139.758803,35.706109],[139.758745,35.705687],[139.758694,35.705342],[139.758534,35.70502],[139.758424,35.704651],[139.758545,35.70428],[139.75886,35.703965],[139.759249,35.703689],[139.759713,35.703452],[139.760275,35.703359],[139.76083,35.703492],[139.761255,35.703747],[139.761632,35.70394],[139.762124,35.704054],[139.762673,35.704247],[139.763002,35.7046],[139.76297,35.70502]]]}},{"type":"Feature","properties":{"kind":"park"},"geometry":{"type":"Polygon","coordinates":[[[139.726312,35.689705],[139.72619,35.690088],[139.72599,35.690448],[139.725623,35.690733],[139.72516,35.690917],[139.724716,35.691095],[139.724246,35.691338],[139.723645,35.691527],[139.72301,35.691457],[139.722567,35.691116],[139.722349,35.690703],[139.722153,35.690368],[139.721871,35.690064],[139.721654,35.689705],[139.721666,35.689309],[139.721865,35.688936],[139.722136,35.688575],[139.722514,35.688239],[139.723065,35.688052],[139.723684,35.688108],[139.724206,35.688297],[139.724662,35.688415],[139.725214,35.688438],[139.725836,35.688545],[139.726278,35.688855],[139.726394,35.689286],[139.726312,35.689705]]]}},{"type":"Feature","properties":{"kind":"park"},"geometry":{"type":"Polygon","coordinates":[[[139.785345,35.682497],[139.785081,35.682899],[139.784815,35.683255],[139.784653,35.683677],[139.784396,35.684166],[139.783841,35.684512],[139.7831,35.684528],[139.782434,35.684303],[139.781894,35.68407],[139.781357,35.683904],[139.780825,35.683687],[139.780433,35.683346],[139.780204,35.682935],[139.780021,35.682497],[139.779912,35.682009],[139.7801,35.681527],[139.780668,35.68121],[139.781372,35.681105],[139.781953,35.681035],[139.782459,35.680836],[139.783075,35.680611],[139.783781,35.680593],[139.784382,35.680843],[139.78481,35.681221],[139.785147,35.681617],[139.785373,35.682045],[139.785345,35.682497]]]}},{"type":"Feature","properties":{"kind":"water"},"geometry":{"type":"Polygon","coordinates":[[[139.770892,35.674119],[139.770982,35.674347],[139.770834,35.674549],[139.770551,35.674671],[139.770282,35.674749],[139.770046,35.674832],[139.769793,35.674888],[139.769528,35.674875],[139.769278,35.674821],[139.769007,35.674779],[139.768692,35.674717],[139.768443,35.674565],[139.768408,35.674334],[139.768563,35.674119],[139.76872,35.673957],[139.768771,35.673793],[139.768808,35.673592],[139.768959,35.67341],[139.76922,35.67331],[139.769512,35.673273],[139.769809,35.673259],[139.770104,35.6733],[139.77033,35.67344],[139.770436,35.673638],[139.770506,35.673809],[139.770669,35.673945],[139.770892,35.674119]]]}}]}