{"type":"FeatureCollection","demo":true,"note":"demo fixture — not real user data（皇居一周・デモ）","features":[{"type":"Feature","properties":{"index":0,"distanceMetres":5159},"geometry":{"type":"LineString","coordinates":[[139.75247,35.677388],[139.752772,35.677204],[139.753035,35.677003],[139.75337,35.676671],[139.753737,35.676266],[139.75397,35.675959],[139.7543,35.67562],[139.754731,35.675364],[139.755318,35.675214],[139.755834,35.675153],[139.756648,35.675106],[139.757089,35.67514],[139.757756,35.675279],[139.758086,35.675397],[139.758307,35.675531],[139.758538,35.675755],[139.758629,35.675877],[139.758843,35.676262],[139.758999,35.676751],[139.759129,35.677318],[139.759174,35.677678],[139.759179,35.678043],[139.759279,35.67875],[139.759274,35.681066],[139.759181,35.68178],[139.759187,35.682216],[139.759143,35.682572],[139.758965,35.68313],[139.758801,35.68355],[139.758409,35.684416],[139.757965,35.685142],[139.757692,35.686118],[139.757649,35.686553],[139.757702,35.687131],[139.757794,35.687484],[139.757913,35.687826],[139.758053,35.688544],[139.758253,35.689175],[139.758289,35.689665],[139.758249,35.689882],[139.758194,35.690024],[139.758069,35.690221],[139.757811,35.690418],[139.757601,35.690539],[139.757136,35.690729],[139.756616,35.690843],[139.756168,35.690878],[139.755294,35.690991],[139.754676,35.691016],[139.75406,35.690984],[139.751522,35.69058],[139.749398,35.690523],[139.748797,35.690421],[139.748374,35.690302],[139.748135,35.690203],[139.747786,35.689987],[139.74733,35.689646],[139.746934,35.689252],[139.746741,35.689012],[139.746249,35.688501],[139.745559,35.687581],[139.74498,35.686763],[139.744746,35.686303],[139.744397,35.685256],[139.744285,35.684391],[139.744233,35.683314],[139.744289,35.682879],[139.744444,35.682472],[139.744675,35.681926],[139.744925,35.681539],[139.745295,35.68114],[139.745649,35.680815],[139.746459,35.68015],[139.747273,35.679703],[139.74769,35.679449],[139.748067,35.679252],[139.74942,35.678722],[139.750212,35.678363],[139.751099,35.678053],[139.752398,35.677419]]}}]}